{
  "type": "FeatureCollection",
  "features": [
    {
      "type": "Feature",
      "properties": {
        "norad_id": 34420,
        "name": "COSMOS 2251 DEB",
        "group": "cosmos-2251-debris",
        "lat": -68.42180344519858,
        "lon": 72.90165985317505,
        "alt_km": 617.6307633926817,
        "timestamp": "2025-12-04T19:33:59.993584+00:00",
        "meta_object_name": "COSMOS 2251 DEB",
        "meta_object_id": "1993-036RM",
        "meta_epoch": "2025-12-04T04:22:05.073024",
        "meta_mean_motion": 14.68257213,
        "meta_eccentricity": 0.01069413,
        "meta_inclination": 74.032,
        "meta_ra_of_asc_node": 120.5115,
        "meta_arg_of_pericenter": 243.6031,
        "meta_mean_anomaly": 294.3695,
        "meta_ephemeris_type": 0,
        "meta_classification_type": "U",
        "meta_norad_cat_id": 34420,
        "meta_element_set_no": 999,
        "meta_rev_at_epoch": 89644,
        "meta_bstar": 0.00042096273,
        "meta_mean_motion_dot": 2.611e-05,
        "meta_mean_motion_ddot": 0,
        "tle_line1": "1 34420U 93036RM  25338.18200316  .00002611  00000+0  42096-3 0  9999",
        "tle_line2": "2 34420  74.0320 120.5115 0106941 243.6031 294.3695 14.68257213896444"
      },
      "geometry": {
        "type": "Point",
        "coordinates": [
          72.90165985317505,
          -68.42180344519858
        ]
      }
    },
    {
      "type": "Feature",
      "properties": {
        "norad_id": 34425,
        "name": "COSMOS 2251 DEB",
        "group": "cosmos-2251-debris",
        "lat": -7.343649287616071,
        "lon": -108.1794603122748,
        "alt_km": 672.4083400906411,
        "timestamp": "2025-12-04T19:33:59.993593+00:00",
        "meta_object_name": "COSMOS 2251 DEB",
        "meta_object_id": "1993-036RS",
        "meta_epoch": "2025-12-04T07:12:56.439072",
        "meta_mean_motion": 14.62048333,
        "meta_eccentricity": 0.00254368,
        "meta_inclination": 74.0207,
        "meta_ra_of_asc_node": 70.6899,
        "meta_arg_of_pericenter": 198.9722,
        "meta_mean_anomaly": 161.0499,
        "meta_ephemeris_type": 0,
        "meta_classification_type": "U",
        "meta_norad_cat_id": 34425,
        "meta_element_set_no": 999,
        "meta_rev_at_epoch": 88617,
        "meta_bstar": 0.0014896001,
        "meta_mean_motion_dot": 7.489e-05,
        "meta_mean_motion_ddot": 0,
        "tle_line1": "1 34425U 93036RS  25338.30065323  .00007489  00000+0  14896-2 0  9999",
        "tle_line2": "2 34425  74.0207  70.6899 0025436 198.9722 161.0499 14.62048333886171"
      },
      "geometry": {
        "type": "Point",
        "coordinates": [
          -108.1794603122748,
          -7.343649287616071
        ]
      }
    },
    {
      "type": "Feature",
      "properties": {
        "norad_id": 34429,
        "name": "COSMOS 2251 DEB",
        "group": "cosmos-2251-debris",
        "lat": -15.366224212625974,
        "lon": 9.725293733393151,
        "alt_km": 461.21191381086464,
        "timestamp": "2025-12-04T19:33:59.993603+00:00",
        "meta_object_name": "COSMOS 2251 DEB",
        "meta_object_id": "1993-036RW",
        "meta_epoch": "2025-12-03T20:54:28.656864",
        "meta_mean_motion": 15.37130972,
        "meta_eccentricity": 0.00057787,
        "meta_inclination": 73.973,
        "meta_ra_of_asc_node": 187.2334,
        "meta_arg_of_pericenter": 40.3696,
        "meta_mean_anomaly": 332.4742,
        "meta_ephemeris_type": 0,
        "meta_classification_type": "U",
        "meta_norad_cat_id": 34429,
        "meta_element_set_no": 999,
        "meta_rev_at_epoch": 89312,
        "meta_bstar": 0.0076414623,
        "meta_mean_motion_dot": 0.0028878,
        "meta_mean_motion_ddot": 0,
        "tle_line1": "1 34429U 93036RW  25337.87116501  .00288780  00000+0  76415-2 0  9999",
        "tle_line2": "2 34429  73.9730 187.2334 0005778  40.3696 332.4742 15.37130972893122"
      },
      "geometry": {
        "type": "Point",
        "coordinates": [
          9.725293733393151,
          -15.366224212625974
        ]
      }
    },
    {
      "type": "Feature",
      "properties": {
        "norad_id": 34430,
        "name": "COSMOS 2251 DEB",
        "group": "cosmos-2251-debris",
        "lat": -64.16752967405705,
        "lon": 174.19010085189123,
        "alt_km": 799.5001558848526,
        "timestamp": "2025-12-04T19:33:59.993612+00:00",
        "meta_object_name": "COSMOS 2251 DEB",
        "meta_object_id": "1993-036RX",
        "meta_epoch": "2025-12-04T00:03:56.040480",
        "meta_mean_motion": 14.39589148,
        "meta_eccentricity": 0.00599246,
        "meta_inclination": 74.0511,
        "meta_ra_of_asc_node": 319.4823,
        "meta_arg_of_pericenter": 31.3534,
        "meta_mean_anomaly": 329.117,
        "meta_ephemeris_type": 0,
        "meta_classification_type": "U",
        "meta_norad_cat_id": 34430,
        "meta_element_set_no": 999,
        "meta_rev_at_epoch": 87829,
        "meta_bstar": 0.00082100269,
        "meta_mean_motion_dot": 2.594e-05,
        "meta_mean_motion_ddot": 0,
        "tle_line1": "1 34430U 93036RX  25338.00273195  .00002594  00000+0  82100-3 0  9996",
        "tle_line2": "2 34430  74.0511 319.4823 0059924  31.3534 329.1170 14.39589148878291"
      },
      "geometry": {
        "type": "Point",
        "coordinates": [
          174.19010085189123,
          -64.16752967405705
        ]
      }
    },
    {
      "type": "Feature",
      "properties": {
        "norad_id": 34431,
        "name": "COSMOS 2251 DEB",
        "group": "cosmos-2251-debris",
        "lat": 71.07800875675527,
        "lon": -46.85687917418322,
        "alt_km": 777.3805560330211,
        "timestamp": "2025-12-04T19:33:59.993621+00:00",
        "meta_object_name": "COSMOS 2251 DEB",
        "meta_object_id": "1993-036RY",
        "meta_epoch": "2025-12-04T00:36:36.467712",
        "meta_mean_motion": 14.2873436,
        "meta_eccentricity": 0.00687027,
        "meta_inclination": 74.0741,
        "meta_ra_of_asc_node": 190.9722,
        "meta_arg_of_pericenter": 179.0094,
        "meta_mean_anomaly": 181.1205,
        "meta_ephemeris_type": 0,
        "meta_classification_type": "U",
        "meta_norad_cat_id": 34431,
        "meta_element_set_no": 999,
        "meta_rev_at_epoch": 87018,
        "meta_bstar": 0.00094447468,
        "meta_mean_motion_dot": 2.413e-05,
        "meta_mean_motion_ddot": 0,
        "tle_line1": "1 34431U 93036RY  25338.02542208  .00002413  00000+0  94447-3 0  9990",
        "tle_line2": "2 34431  74.0741 190.9722 0068702 179.0094 181.1205 14.28734360870183"
      },
      "geometry": {
        "type": "Point",
        "coordinates": [
          -46.85687917418322,
          71.07800875675527
        ]
      }
    },
    {
      "type": "Feature",
      "properties": {
        "norad_id": 34432,
        "name": "COSMOS 2251 DEB",
        "group": "cosmos-2251-debris",
        "lat": 54.33611051382404,
        "lon": -87.56615929295056,
        "alt_km": 848.3387696106529,
        "timestamp": "2025-12-04T19:33:59.993630+00:00",
        "meta_object_name": "COSMOS 2251 DEB",
        "meta_object_id": "1993-036RZ",
        "meta_epoch": "2025-12-03T02:28:17.071104",
        "meta_mean_motion": 14.02836729,
        "meta_eccentricity": 0.01831849,
        "meta_inclination": 73.8275,
        "meta_ra_of_asc_node": 119.3014,
        "meta_arg_of_pericenter": 203.436,
        "meta_mean_anomaly": 276.5797,
        "meta_ephemeris_type": 0,
        "meta_classification_type": "U",
        "meta_norad_cat_id": 34432,
        "meta_element_set_no": 999,
        "meta_rev_at_epoch": 85549,
        "meta_bstar": 0.0016054633,
        "meta_mean_motion_dot": 2.856e-05,
        "meta_mean_motion_ddot": 0,
        "tle_line1": "1 34432U 93036RZ  25337.10297536  .00002856  00000+0  16055-2 0  9999",
        "tle_line2": "2 34432  73.8275 119.3014 0183184 203.4360 276.5797 14.02836729855498"
      },
      "geometry": {
        "type": "Point",
        "coordinates": [
          -87.56615929295056,
          54.33611051382404
        ]
      }
    },
    {
      "type": "Feature",
      "properties": {
        "norad_id": 34433,
        "name": "COSMOS 2251 DEB",
        "group": "cosmos-2251-debris",
        "lat": -41.41784206055495,
        "lon": 3.625273108651315,
        "alt_km": 845.5595747555135,
        "timestamp": "2025-12-04T19:33:59.993639+00:00",
        "meta_object_name": "COSMOS 2251 DEB",
        "meta_object_id": "1993-036SA",
        "meta_epoch": "2025-12-03T23:48:16.288416",
        "meta_mean_motion": 14.12791215,
        "meta_eccentricity": 0.01517985,
        "meta_inclination": 74.0107,
        "meta_ra_of_asc_node": 170.4313,
        "meta_arg_of_pericenter": 310.4463,
        "meta_mean_anomaly": 48.3519,
        "meta_ephemeris_type": 0,
        "meta_classification_type": "U",
        "meta_norad_cat_id": 34433,
        "meta_element_set_no": 999,
        "meta_rev_at_epoch": 85826,
        "meta_bstar": 0.0024084463,
        "meta_mean_motion_dot": 4.967e-05,
        "meta_mean_motion_ddot": 0,
        "tle_line1": "1 34433U 93036SA  25337.99185519  .00004967  00000+0  24084-2 0  9990",
        "tle_line2": "2 34433  74.0107 170.4313 0151798 310.4463  48.3519 14.12791215858261"
      },
      "geometry": {
        "type": "Point",
        "coordinates": [
          3.625273108651315,
          -41.41784206055495
        ]
      }
    }
  ]
}